{
  "norad_id": 55605,
  "name": "STARLINK-5725",
  "history": [
    {
      "epoch": "2026-04-14T09:55:52.173120Z",
      "apogee_km": 485.02620621830374,
      "perigee_km": 482.7647547940278,
      "latitude_deg": 2.3907499171388608e-05,
      "longitude_deg": 160.85176624517163,
      "height_km": 483.3269910721985,
      "semi_major_axis_km": 6862.0324805061655,
      "eccentricity": 0.00016478,
      "inclination_deg": 43.0012,
      "raan_deg": 152.4097,
      "arg_perigee_deg": 287.7936,
      "mean_anomaly_deg": 72.2736,
      "mean_motion_rev_day": 15.27297384
    },
    {
      "epoch": "2026-04-16T12:09:04.205952Z",
      "apogee_km": 484.2803282013256,
      "perigee_km": 482.55807759439904,
      "latitude_deg": 4.088128481206267e-05,
      "longitude_deg": 113.67468890021713,
      "height_km": 483.03092073278833,
      "semi_major_axis_km": 6861.556202897862,
      "eccentricity": 0.0001255,
      "inclination_deg": 43.002,
      "raan_deg": 140.5952,
      "arg_perigee_deg": 281.0533,
      "mean_anomaly_deg": 79.0178,
      "mean_motion_rev_day": 15.27456407
    },
    {
      "epoch": "2026-04-17T10:07:06.327264Z",
      "apogee_km": 483.9868768198712,
      "perigee_km": 482.11583075579347,
      "latitude_deg": -2.0951909372021373e-05,
      "longitude_deg": 138.0926224410214,
      "height_km": 482.4991325942477,
      "semi_major_axis_km": 6861.188353787832,
      "eccentricity": 0.00013635,
      "inclination_deg": 43.0021,
      "raan_deg": 135.4242,
      "arg_perigee_deg": 290.5965,
      "mean_anomaly_deg": 69.474,
      "mean_motion_rev_day": 15.27579246
    },
    {
      "epoch": "2026-04-18T12:47:43.918944Z",
      "apogee_km": 483.769341875759,
      "perigee_km": 482.2036334958684,
      "latitude_deg": 1.5471583334430918e-05,
      "longitude_deg": 90.56274001839746,
      "height_km": 482.5502613198809,
      "semi_major_axis_km": 6861.123487685813,
      "eccentricity": 0.0001141,
      "inclination_deg": 43.0021,
      "raan_deg": 129.1465,
      "arg_perigee_deg": 285.783,
      "mean_anomaly_deg": 74.2896,
      "mean_motion_rev_day": 15.27600909
    },
    {
      "epoch": "2026-04-19T09:11:47.600448Z",
      "apogee_km": 483.8082362866571,
      "perigee_km": 482.30577202362656,
      "latitude_deg": 5.545649725232912e-05,
      "longitude_deg": 138.90850234248202,
      "height_km": 482.81672101396856,
      "semi_major_axis_km": 6861.194004155142,
      "eccentricity": 0.00010949,
      "inclination_deg": 43.0022,
      "raan_deg": 124.3454,
      "arg_perigee_deg": 271.2942,
      "mean_anomaly_deg": 88.7785,
      "mean_motion_rev_day": 15.27577359
    },
    {
      "epoch": "2026-04-20T11:52:27.823872Z",
      "apogee_km": 483.82076764860903,
      "perigee_km": 482.2897612067245,
      "latitude_deg": 6.347444890374334e-06,
      "longitude_deg": 91.36833055354529,
      "height_km": 482.8644495115874,
      "semi_major_axis_km": 6861.1922644276665,
      "eccentricity": 0.00011157,
      "inclination_deg": 43.0026,
      "raan_deg": 118.0685,
      "arg_perigee_deg": 267.5712,
      "mean_anomaly_deg": 92.5012,
      "mean_motion_rev_day": 15.2757794
    },
    {
      "epoch": "2026-04-21T11:24:47.691936Z",
      "apogee_km": 483.693503428176,
      "perigee_km": 482.41183319813626,
      "latitude_deg": -1.4450275226452816e-05,
      "longitude_deg": 91.77891610218215,
      "height_km": 483.03316739779007,
      "semi_major_axis_km": 6861.189668313156,
      "eccentricity": 9.34e-05,
      "inclination_deg": 43.0021,
      "raan_deg": 112.5286,
      "arg_perigee_deg": 251.4345,
      "mean_anomaly_deg": 108.6405,
      "mean_motion_rev_day": 15.27578807
    },
    {
      "epoch": "2026-04-22T07:48:46.073664Z",
      "apogee_km": 485.41652595483447,
      "perigee_km": 480.53086625035303,
      "latitude_deg": 2.0199907863863108e-05,
      "longitude_deg": 140.14841391778157,
      "height_km": 482.09270736748124,
      "semi_major_axis_km": 6861.1106961025935,
      "eccentricity": 0.00035604,
      "inclination_deg": 43.0033,
      "raan_deg": 107.7291,
      "arg_perigee_deg": 285.6638,
      "mean_anomaly_deg": 74.3821,
      "mean_motion_rev_day": 15.27605181
    },
    {
      "epoch": "2026-04-23T10:29:33.699840Z",
      "apogee_km": 486.2581168447459,
      "perigee_km": 480.0234109662397,
      "latitude_deg": 6.371647425725443e-06,
      "longitude_deg": 92.56944995330748,
      "height_km": 480.0655170505477,
      "semi_major_axis_km": 6861.277763905492,
      "eccentricity": 0.00045434,
      "inclination_deg": 43.0135,
      "raan_deg": 101.4443,
      "arg_perigee_deg": 23.8817,
      "mean_anomaly_deg": 336.2245,
      "mean_motion_rev_day": 15.27549387
    },
    {
      "epoch": "2026-04-24T08:27:40.918752Z",
      "apogee_km": 484.004483336259,
      "perigee_km": 482.0737483772573,
      "latitude_deg": 8.984923476602475e-06,
      "longitude_deg": 116.97505132762568,
      "height_km": 482.61678984800176,
      "semi_major_axis_km": 6861.176115856758,
      "eccentricity": 0.0001407,
      "inclination_deg": 43.0039,
      "raan_deg": 96.2822,
      "arg_perigee_deg": 281.9247,
      "mean_anomaly_deg": 78.1447,
      "mean_motion_rev_day": 15.27583333
    },
    {
      "epoch": "2026-04-25T08:00:02.382624Z",
      "apogee_km": 483.8812610502555,
      "perigee_km": 482.20850490718567,
      "latitude_deg": -4.2258071573064134e-05,
      "longitude_deg": 117.3790387681788,
      "height_km": 482.9011589371783,
      "semi_major_axis_km": 6861.181882978721,
      "eccentricity": 0.0001219,
      "inclination_deg": 43.0039,
      "raan_deg": 90.7424,
      "arg_perigee_deg": 264.5592,
      "mean_anomaly_deg": 95.512,
      "mean_motion_rev_day": 15.27581407
    },
    {
      "epoch": "2026-04-26T07:32:23.405856Z",
      "apogee_km": 483.93138365071536,
      "perigee_km": 482.17999560476073,
      "latitude_deg": 1.5078772939986431e-05,
      "longitude_deg": 117.78608375305795,
      "height_km": 482.8941244434704,
      "semi_major_axis_km": 6861.192689627738,
      "eccentricity": 0.00012763,
      "inclination_deg": 43.0042,
      "raan_deg": 85.2037,
      "arg_perigee_deg": 265.9806,
      "mean_anomaly_deg": 94.09,
      "mean_motion_rev_day": 15.27577798
    },
    {
      "epoch": "2026-04-27T08:38:55.478976Z",
      "apogee_km": 483.8530733053349,
      "perigee_km": 482.34908991784414,
      "latitude_deg": -5.8188995836725e-06,
      "longitude_deg": 94.21313788816887,
      "height_km": 482.8831037004141,
      "semi_major_axis_km": 6861.238081611589,
      "eccentricity": 0.0001096,
      "inclination_deg": 43.0053,
      "raan_deg": 79.2956,
      "arg_perigee_deg": 269.6201,
      "mean_anomaly_deg": 90.4525,
      "mean_motion_rev_day": 15.27562639
    },
    {
      "epoch": "2026-04-28T20:44:31.207776Z",
      "apogee_km": 484.01097414914784,
      "perigee_km": 482.11453853649436,
      "latitude_deg": -3.9877691098078834e-05,
      "longitude_deg": -97.16056472303346,
      "height_km": 482.8935169671619,
      "semi_major_axis_km": 6861.19975634282,
      "eccentricity": 0.0001382,
      "inclination_deg": 43.0057,
      "raan_deg": 70.8031,
      "arg_perigee_deg": 266.769,
      "mean_anomaly_deg": 93.3003,
      "mean_motion_rev_day": 15.27575438
    },
    {
      "epoch": "2026-04-29T20:16:51.088800Z",
      "apogee_km": 483.97962143891255,
      "perigee_km": 482.07221814721015,
      "latitude_deg": 4.3318792893151265e-06,
      "longitude_deg": -96.74846133267481,
      "height_km": 482.88049777938517,
      "semi_major_axis_km": 6861.1629197930615,
      "eccentricity": 0.000139,
      "inclination_deg": 43.0051,
      "raan_deg": 65.2647,
      "arg_perigee_deg": 265.349,
      "mean_anomaly_deg": 94.7203,
      "mean_motion_rev_day": 15.2758774
    },
    {
      "epoch": "2026-04-30T13:32:34.403712Z",
      "apogee_km": 483.89637928070533,
      "perigee_km": 482.1670903127879,
      "latitude_deg": -1.8330125318734786e-05,
      "longitude_deg": -0.4492909814398025,
      "height_km": 482.8036638449708,
      "semi_major_axis_km": 6861.168734796746,
      "eccentricity": 0.00012602,
      "inclination_deg": 43.0048,
      "raan_deg": 61.2033,
      "arg_perigee_deg": 270.3441,
      "mean_anomaly_deg": 89.7266,
      "mean_motion_rev_day": 15.27585798
    },
    {
      "epoch": "2026-05-01T22:29:51.023904Z",
      "apogee_km": 484.5204642178569,
      "perigee_km": 481.5605522408068,
      "latitude_deg": -2.3518262067663876e-05,
      "longitude_deg": -143.87904679189913,
      "height_km": 483.135818994086,
      "semi_major_axis_km": 6861.177508229332,
      "eccentricity": 0.0002157,
      "inclination_deg": 43.0071,
      "raan_deg": 53.4462,
      "arg_perigee_deg": 257.6194,
      "mean_anomaly_deg": 102.4416,
      "mean_motion_rev_day": 15.27582868
    },
    {
      "epoch": "2026-05-03T05:52:34.000608Z",
      "apogee_km": 483.9607272475678,
      "perigee_km": 480.05524670648265,
      "latitude_deg": -3.822419572385227e-06,
      "longitude_deg": 96.77012805275216,
      "height_km": 480.1431263149537,
      "semi_major_axis_km": 6860.144986977025,
      "eccentricity": 0.00028465,
      "inclination_deg": 43.005,
      "raan_deg": 46.0631,
      "arg_perigee_deg": 327.2555,
      "mean_anomaly_deg": 32.812,
      "mean_motion_rev_day": 15.27927756
    },
    {
      "epoch": "2026-05-05T20:39:15.236064Z",
      "apogee_km": 483.98175673791866,
      "perigee_km": 482.1909774391088,
      "latitude_deg": -1.6072993646413666e-05,
      "longitude_deg": -142.24901438608796,
      "height_km": 482.58996505420316,
      "semi_major_axis_km": 6861.223367088513,
      "eccentricity": 0.0001305,
      "inclination_deg": 43.0054,
      "raan_deg": 31.294,
      "arg_perigee_deg": 287.7932,
      "mean_anomaly_deg": 72.2777,
      "mean_motion_rev_day": 15.27567553
    }
  ]
}